STARLINK-37839          
1 69496U 26131U   26186.03385407  .00368192  00000+0  18319-2 0  9992
2 69496  97.2829 207.3602 0001059 122.3549 237.7822 15.80947919  3720
STARLINK-37798          
1 69497U 26131V   26186.15257374  .00720422  00000+0  34099-2 0  9998
2 69497  97.2830 207.5053 0001024 117.6821 242.4551 15.81135551  3743
STARLINK-37853          
1 69498U 26131W   26186.14881491  .00229793  00000+0  11649-2 0  9992
2 69498  97.2845 207.5095 0000711  69.8632 290.2712 15.80894426  3748
STARLINK-37849          
1 69499U 26131X   26186.21286973  .00343627  00000+0  17167-2 0  9999
2 69499  97.2834 207.5763 0001320  29.2136 330.9206 15.80921067  3758
STARLINK-37835          
1 69500U 26131Y   26186.21437477  .00298896  00000+0  15025-2 0  9997
2 69500  97.2844 207.5757 0001846  71.0385 289.1083 15.80900959  3754
STARLINK-37843          
1 69501U 26131Z   26186.21361608  .00220205  00000+0  11169-2 0  9994
2 69501  97.2834 207.5758 0003083 142.7428 217.4055 15.80905168  3754
STARS-X                 
1 69502U 26132A   26185.97739394  .00002044  00000+0  17294-3 0  9994
2 69502  97.6881 249.4168 0013675 202.5807 157.4816 14.99087795  3445
2026-132B               
1 69503U 26132B   26185.90931643  .00001673  00000+0  14217-3 0  9998
2 69503  97.6910 249.3617 0013571 204.9107 155.1462 14.99168296  3438
BRO-22                  
1 69504U 26132C   26186.16670559  .00001717  00000+0  14333-3 0  9992
2 69504  97.6837 249.6168 0015508 217.5244 142.4898 14.99790448  3471
HORN-L                  
1 69505U 26132D   26185.17090957  .00004526  00000+0  29468-3 0  9997
2 69505  97.6898 248.7806 0023582 237.6046 122.2900 15.08239686  3330
VERTECS                 
1 69506U 26132E   26186.14918152  .00004796  00000+0  37993-3 0  9993
2 69506  97.6843 249.6507 0014467 240.4635 119.5147 15.00966111  3465
HORN-R                  
1 69507U 26132F   26185.19215573  .00002033  00000+0  14950-3 0  9995
2 69507  97.6788 248.7351 0016898 236.3621 123.5993 15.04449432  3325
STARLINK-37536          
1 69508U 26133A   26186.25005787  .00036992  00000+0  67092-3 0  9995
2 69508  53.1601 232.4041 0001391  76.5539 244.2989 15.49270377  4873
STARLINK-37341          
1 69509U 26133B   26186.25005787  .00038612  00000+0  69966-3 0  9999
2 69509  53.1602 232.4246 0001450  70.7333 239.7595 15.49276539  4874
STARLINK-36536          
1 69510U 26133C   26186.25005787 -.02472557  00000+0 -33096-1 0  9998
2 69510  53.1598 231.8070 0001045  90.0746 165.0865 15.61040693  4821
STARLINK-37420          
1 69511U 26133D   26186.25005787 -.02586080  00000+0 -29063-1 0  9995
2 69511  53.1599 231.6477 0000844  80.1992 252.3228 15.65614998  4777
STARLINK-37511          
1 69512U 26133E   26186.25005787 -.02589450  00000+0 -27941-1 0  9993
2 69512  53.1598 231.6571 0000806  76.3329 251.9226 15.66619130  4778
STARLINK-37552          
1 69513U 26133F   26186.25005787  .00046022  00000+0  83229-3 0  9996
2 69513  53.1603 232.4161 0002065  51.4199 262.3192 15.49252186  4771
STARLINK-37607          
1 69514U 26133G   26186.25005787 -.02619087  00000+0 -31783-1 0  9994
2 69514  53.1600 231.6347 0000806  75.3012 263.8274 15.63757894  4775
STARLINK-37232          
1 69515U 26133H   26186.25005787  .00036821  00000+0  66778-3 0  9994
2 69515  53.1593 232.1341 0001354 106.4970 345.4253 15.49274662  4770
STARLINK-37323          
1 69516U 26133J   26186.25005787 -.02589248  00000+0 -26026-1 0  9995
2 69516  53.1595 231.5176 0000707  80.3609 315.0895 15.68341166  4772
STARLINK-37357          
1 69517U 26133K   26186.25005787 -.00204976  00000+0 -37648-2 0  9999
2 69517  53.1603 232.4045 0001163  91.1574 226.6113 15.49383732  4770
STARLINK-37408          
1 69518U 26133L   26186.25005787 -.02502730  00000+0 -38103-1 0  9997
2 69518  53.1604 231.7133 0001036  93.7300 205.2829 15.57745249  4777
STARLINK-37570          
1 69519U 26133M   26186.25005787  .00039230  00000+0  71072-3 0  9998
2 69519  53.1592 232.1605 0000990  82.4899 354.6107 15.49274302  4775
STARLINK-37510          
1 69520U 26133N   26186.25005787  .00038572  00000+0  69933-3 0  9991
2 69520  53.1591 232.1097 0000674 110.1923 352.7874 15.49261408  4770
STARLINK-37586          
1 69521U 26133P   26186.25005787 -.02562110  00000+0 -28407-1 0  9995
2 69521  53.1595 231.3579 0001260  65.8245  46.2139 15.65907456  4773
STARLINK-37379          
1 69522U 26133Q   26186.25005787 -.02541761  00000+0 -48100-1 0  9997
2 69522  53.1601 231.8015 0001485  85.4999 168.3857 15.51297856  4825
STARLINK-37429          
1 69523U 26133R   26186.25005787  .00032070  00000+0  58332-3 0  9992
2 69523  53.1597 232.2213 0001412  65.7565 340.5361 15.49259386  4822
STARLINK-37352          
1 69524U 26133S   26186.25005787 -.00882882  00000+0 -16800-1 0  9991
2 69524  53.1601 231.7844 0000889  74.5903 187.1667 15.50381371  4820
STARLINK-37490          
1 69525U 26133T   26186.25005787 -.02571912  00000+0 -36259-1 0  9993
2 69525  53.1597 231.3871 0001392  66.9939  29.2663 15.59859553  4828
