OBJECT_NAME,OBJECT_ID,EPOCH,MEAN_MOTION,ECCENTRICITY,INCLINATION,RA_OF_ASC_NODE,ARG_OF_PERICENTER,MEAN_ANOMALY,EPHEMERIS_TYPE,CLASSIFICATION_TYPE,NORAD_CAT_ID,ELEMENT_SET_NO,REV_AT_EPOCH,BSTAR,MEAN_MOTION_DOT,MEAN_MOTION_DDOT
STARLINK-37839,2026-131U,2026-07-05T00:48:44.991648,15.80947919,.00010598,97.2829,207.3602,122.3549,237.7822,0,U,69496,999,372,.18318846E-2,.368192E-2,0
STARLINK-37798,2026-131V,2026-07-05T03:39:42.371136,15.81135551,.00010244,97.2830,207.5053,117.6821,242.4551,0,U,69497,999,374,.34099331E-2,.720422E-2,0
STARLINK-37853,2026-131W,2026-07-05T03:34:17.608224,15.80894426,.00007115,97.2845,207.5095,69.8632,290.2712,0,U,69498,999,374,.11649073E-2,.229793E-2,0
STARLINK-37849,2026-131X,2026-07-05T05:06:31.944672,15.80921067,.00013206,97.2834,207.5763,29.2136,330.9206,0,U,69499,999,375,.17167231E-2,.343627E-2,0
STARLINK-37835,2026-131Y,2026-07-05T05:08:41.980128,15.80900959,.00018464,97.2844,207.5757,71.0385,289.1083,0,U,69500,999,375,.15024917E-2,.298896E-2,0
STARLINK-37843,2026-131Z,2026-07-05T05:07:36.429312,15.80905168,.00030837,97.2834,207.5758,142.7428,217.4055,0,U,69501,999,375,.11168825E-2,.220205E-2,0
STARS-X,2026-132A,2026-07-04T23:27:26.836416,14.99087795,.00136755,97.6881,249.4168,202.5807,157.4816,0,U,69502,999,344,.17294224E-3,.2044E-4,0
2026-132B,2026-132B,2026-07-04T21:49:24.939552,14.99168296,.00135718,97.6910,249.3617,204.9107,155.1462,0,U,69503,999,343,.14217361E-3,.1673E-4,0
BRO-22,2026-132C,2026-07-05T04:00:03.362976,14.99790448,.00155082,97.6837,249.6168,217.5244,142.4898,0,U,69504,999,347,.14332619E-3,.1717E-4,0
HORN-L,2026-132D,2026-07-04T04:06:06.586848,15.08239686,.0023582,97.6898,248.7806,237.6046,122.2900,0,U,69505,999,333,.29468E-3,.4526E-4,0
VERTECS,2026-132E,2026-07-05T03:34:49.283328,15.00966111,.00144671,97.6843,249.6507,240.4635,119.5147,0,U,69506,999,346,.37993487E-3,.4796E-4,0
HORN-R,2026-132F,2026-07-04T04:36:42.255072,15.04449432,.0016898,97.6788,248.7351,236.3621,123.5993,0,U,69507,999,332,.1495E-3,.2033E-4,0
STARLINK-37536,2026-133A,2026-07-05T06:00:04.999968,15.49270377,.00013913,53.1601,232.4041,76.5539,244.2989,0,U,69508,999,487,.67092376E-3,.36992E-3,0
STARLINK-37341,2026-133B,2026-07-05T06:00:04.999968,15.49276539,.00014509,53.1602,232.4246,70.7333,239.7595,0,U,69509,999,487,.69965792E-3,.38612E-3,0
STARLINK-36536,2026-133C,2026-07-05T06:00:04.999968,15.61040693,.00010455,53.1598,231.8070,90.0746,165.0865,0,U,69510,999,482,-.33096287E-1,-.2472557E-1,0
STARLINK-37420,2026-133D,2026-07-05T06:00:04.999968,15.65614998,.00008444,53.1599,231.6477,80.1992,252.3228,0,U,69511,999,477,-.29063171E-1,-.258608E-1,0
STARLINK-37511,2026-133E,2026-07-05T06:00:04.999968,15.66619130,.00008061,53.1598,231.6571,76.3329,251.9226,0,U,69512,999,477,-.27941277E-1,-.258945E-1,0
STARLINK-37552,2026-133F,2026-07-05T06:00:04.999968,15.49252186,.00020653,53.1603,232.4161,51.4199,262.3192,0,U,69513,999,477,.83228694E-3,.46022E-3,0
STARLINK-37607,2026-133G,2026-07-05T06:00:04.999968,15.63757894,.00008062,53.1600,231.6347,75.3012,263.8274,0,U,69514,999,477,-.31783453E-1,-.2619087E-1,0
STARLINK-37232,2026-133H,2026-07-05T06:00:04.999968,15.49274662,.00013542,53.1593,232.1341,106.4970,345.4253,0,U,69515,999,477,.66778004E-3,.36821E-3,0
STARLINK-37323,2026-133J,2026-07-05T06:00:04.999968,15.68341166,.00007072,53.1595,231.5176,80.3609,315.0895,0,U,69516,999,477,-.26026101E-1,-.2589248E-1,0
STARLINK-37357,2026-133K,2026-07-05T06:00:04.999968,15.49383732,.00011631,53.1603,232.4045,91.1574,226.6113,0,U,69517,999,477,-.37647887E-2,-.204976E-2,0
STARLINK-37408,2026-133L,2026-07-05T06:00:04.999968,15.57745249,.00010362,53.1604,231.7133,93.7300,205.2829,0,U,69518,999,477,-.38102636E-1,-.250273E-1,0
STARLINK-37570,2026-133M,2026-07-05T06:00:04.999968,15.49274302,.00009908,53.1592,232.1605,82.4899,354.6107,0,U,69519,999,477,.71072473E-3,.3923E-3,0
STARLINK-37510,2026-133N,2026-07-05T06:00:04.999968,15.49261408,.00006741,53.1591,232.1097,110.1923,352.7874,0,U,69520,999,477,.69932838E-3,.38572E-3,0
STARLINK-37586,2026-133P,2026-07-05T06:00:04.999968,15.65907456,.00012607,53.1595,231.3579,65.8245,46.2139,0,U,69521,999,477,-.28406538E-1,-.256211E-1,0
STARLINK-37379,2026-133Q,2026-07-05T06:00:04.999968,15.51297856,.0001485,53.1601,231.8015,85.4999,168.3857,0,U,69522,999,482,-.48100039E-1,-.2541761E-1,0
STARLINK-37429,2026-133R,2026-07-05T06:00:04.999968,15.49259386,.00014125,53.1597,232.2213,65.7565,340.5361,0,U,69523,999,482,.58332126E-3,.3207E-3,0
STARLINK-37352,2026-133S,2026-07-05T06:00:04.999968,15.50381371,.00008895,53.1601,231.7844,74.5903,187.1667,0,U,69524,999,482,-.16799764E-1,-.882882E-2,0
STARLINK-37490,2026-133T,2026-07-05T06:00:04.999968,15.59859553,.00013926,53.1597,231.3871,66.9939,29.2663,0,U,69525,999,482,-.36259286E-1,-.2571912E-1,0
